{
 "type": "Feature",
 "properties": {
  "roll_year": "2026",
  "roll_number": "202147328",
  "address": "708 1 AV SW",
  "assessed_value": "6840000.0",
  "assessment_class": "RE",
  "assessment_class_description": "Residential",
  "re_assessed_value": "6840000.0",
  "nr_assessed_value": "0.0",
  "fl_assessed_value": "0.0",
  "comm_code": "EAU",
  "comm_name": "EAU CLAIRE",
  "land_use_designation": "DC",
  "property_type": "LO",
  "land_size_sm": "3028.4",
  "land_size_sf": "32598.0",
  "land_size_ac": "0.75",
  "mod_date": "2026-08-27T00:00:00.000Z",
  "sub_property_use": "A006",
  "short_legal": "1511276;2",
  "cpid": "960615599",
  "unique_key": "2026202147328960615599"
 },
 "geometry": {
  "type": "MultiPolygon",
  "coordinates": [
   [
    [
     [
      -114.0759994,
      51.0530886
     ],
     [
      -114.0766471,
      51.0530897
     ],
     [
      -114.0765548,
      51.052401
     ],
     [
      -114.076109,
      51.0524003
     ],
     [
      -114.0760968,
      51.052401
     ],
     [
      -114.076085,
      51.0524032
     ],
     [
      -114.076074,
      51.0524068
     ],
     [
      -114.0760644,
      51.0524116
     ],
     [
      -114.0760564,
      51.0524174
     ],
     [
      -114.0760503,
      51.0524242
     ],
     [
      -114.0760464,
      51.0524315
     ],
     [
      -114.0760447,
      51.0524391
     ],
     [
      -114.0760456,
      51.05246
     ],
     [
      -114.0760507,
      51.0524807
     ],
     [
      -114.07606,
      51.0525008
     ],
     [
      -114.0760733,
      51.0525199
     ],
     [
      -114.0760868,
      51.0525402
     ],
     [
      -114.0760949,
      51.0525616
     ],
     [
      -114.0760973,
      51.0525836
     ],
     [
      -114.076094,
      51.0526055
     ],
     [
      -114.0760851,
      51.0526268
     ],
     [
      -114.0760708,
      51.0526469
     ],
     [
      -114.0760515,
      51.0526652
     ],
     [
      -114.0760278,
      51.0526814
     ],
     [
      -114.0759994,
      51.0530886
     ]
    ]
   ]
  ]
 }
}